0 COSMOS 372
1 04588U 70086A   13282.37003432  .00000119  00000-0  50193-4 0   303
2 04588 074.0568 072.2320 0014411 272.5259 103.8527 14.35609439248156
0 COSMOS 372
1 04588U 70086A   13283.48807685  .00000093  00000-0  41283-4 0   310
2 04588 074.0569 070.1831 0014390 270.3600 121.9514 14.35610055248314
0 COSMOS 372
1 04588U 70086A   13286.34229997  .00000089  00000-0  40047-4 0   336
2 04588 074.0576 064.9528 0014345 264.9099 112.6484 14.35610715248728
0 COSMOS 372
1 04588U 70086A   13287.38809584  .00000094  00000-0  41592-4 0   340
2 04588 074.0578 063.0364 0014341 262.8599 117.4026 14.35610999248871
0 COSMOS 372
1 04588U 70086A   13288.51205162  .00000151  00000-0  61467-4 0   356
2 04588 074.0580 060.9770 0014359 260.7733 165.9784 14.35611690249034
0 COSMOS 372
1 04588U 70086A   13289.84524807  .00000147  00000-0  59981-4 0   367
2 04588 074.0583 058.5343 0014357 258.2881 215.9188 14.35611922249223
0 COSMOS 372
1 04588U 70086A   13291.36018186  .00000163  00000-0  65470-4 0   374
2 04588 074.0583 055.7587 0014320 255.3577 125.1829 14.35612307249448
0 COSMOS 372
1 04588U 70086A   13292.40761676  .00000161  00000-0  64839-4 0   386
2 04588 074.0583 053.8395 0014302 253.3258 138.3924 14.35612864249594
0 COSMOS 372
1 04588U 70086A   13293.45506424  .00000173  00000-0  68852-4 0   393
2 04588 074.0584 051.9203 0014271 251.3251 151.6378 14.35613350249747
0 COSMOS 372
1 04588U 70086A   13294.50581317  .00000173  00000-0  69133-4 0   409
2 04588 074.0584 049.9951 0014253 249.2586 182.0075 14.35613740249892
0 COSMOS 372
1 04588U 70086A   13295.84391046  .00000171  00000-0  68442-4 0   416
2 04588 074.0585 047.5432 0014214 246.6579 257.3900 14.35614291250089
